norad_id,name,regime,epoch,line1,line2,inclination,eccentricity,mean_motion,raan,arg_pericenter,mean_anomaly
19751,COSMOS 1989 (ETALON 1),NSO,03091.85507827,1 19751U 89001C   03091.85507827 -.00000081 +00000-0 +00000-0 0 0917\,2 19751 066.0192 002.2391 0013749 230.0504 129.8610 02.1315550411074,66.0192,0.0013749,2.13155504,2.2391,230.0504,129.861
19751,COSMOS 1989 (ETALON 1),NSO,03092.32422564,1 19751U 89001C   03092.32422564 -.00000079 +00000-0 +00000-0 0 0916\,2 19751 066.0191 002.2236 0013747 230.0636 129.8488 02.1315550211075,66.0191,0.0013747,2.13155502,2.2236,230.0636,129.8488
19751,COSMOS 1989 (ETALON 1),NSO,03092.79337357,1 19751U 89001C   03092.79337357 -.00000077 +00000-0 +00000-0 0 0917\,2 19751 066.0190 002.2079 0013749 230.0513 129.8630 02.1315550111076,66.019,0.0013749,2.13155501,2.2079,230.0513,129.863
19751,COSMOS 1989 (ETALON 1),NSO,03094.66996363,1 19751U 89001C   03094.66996363 -.00000073 +00000-0 +00000-0 0 0916\,2 19751 066.0189 002.1448 0013738 230.0500 129.8699 02.1315549511080,66.0189,0.0013738,2.13155495,2.1448,230.05,129.8699
19751,COSMOS 1989 (ETALON 1),NSO,03095.13910871,1 19751U 89001C   03095.13910871 -.00000072 +00000-0 +00000-0 0 0917\,2 19751 066.0189 002.1293 0013738 230.0772 129.8429 02.1315551111081,66.0189,0.0013738,2.13155511,2.1293,230.0772,129.8429
19751,COSMOS 1989 (ETALON 1),NSO,03096.07740022,1 19751U 89001C   03096.07740022 -.00000070 +00000-0 +00000-0 0 0918\,2 19751 066.0189 002.0984 0013758 229.9998 129.9210 02.1315551411083,66.0189,0.0013758,2.13155514,2.0984,229.9998,129.921
19751,COSMOS 1989 (ETALON 1),NSO,03097.01569103,1 19751U 89001C   03097.01569103 -.00000069  00000-0  00000+0 0  9170\,2 19751 066.0188 002.0672 0013756 229.9978 129.9230 02.13155520110854,66.0188,0.0013756,2.1315552,2.0672,229.9978,129.923
19751,COSMOS 1989 (ETALON 1),NSO,03097.48483608,1 19751U 89001C   03097.48483608 -.00000068 +00000-0 +00000-0 0 0918\,2 19751 066.0186 002.0515 0013753 230.0006 129.9197 02.1315551811086,66.0186,0.0013753,2.13155518,2.0515,230.0006,129.9197
19751,COSMOS 1989 (ETALON 1),NSO,03098.42312689,1 19751U 89001C   03098.42312689 -.00000066 +00000-0 +00000-0 0 0919\,2 19751 066.0188 002.0199 0013755 230.0176 129.9028 02.1315552611088,66.0188,0.0013755,2.13155526,2.0199,230.0176,129.9028
19751,COSMOS 1989 (ETALON 1),NSO,03098.89227142,1 19751U 89001C   03098.89227142 -.00000065 +00000-0 +00000-0 0 0920\,2 19751 066.0187 002.0044 0013749 229.9536 129.9664 02.1315552611089,66.0187,0.0013749,2.13155526,2.0044,229.9536,129.9664
19751,COSMOS 1989 (ETALON 1),NSO,03099.83056190,1 19751U 89001C   03099.83056190 -.00000063  00000-0  00000+0 0  9184\,2 19751 066.0182 001.9733 0013731 229.8990 130.0207 02.13155537110912,66.0182,0.0013731,2.13155537,1.9733,229.899,130.0207
19751,COSMOS 1989 (ETALON 1),NSO,03100.29970726,1 19751U 89001C   03100.29970726 -.00000062 +00000-0 +00000-0 0 0919\,2 19751 066.0182 001.9578 0013729 229.8859 130.0337 02.1315553611092,66.0182,0.0013729,2.13155536,1.9578,229.8859,130.0337
19751,COSMOS 1989 (ETALON 1),NSO,03101.23799871,1 19751U 89001C   03101.23799871 -.00000060 +00000-0 +00000-0 0 0920\,2 19751 066.0180 001.9270 0013732 229.8759 130.0439 02.1315554311094,66.018,0.0013732,2.13155543,1.927,229.8759,130.0439
19751,COSMOS 1989 (ETALON 1),NSO,03102.17629085,1 19751U 89001C   03102.17629085 -.00000058 +00000-0 +00000-0 0 0919\,2 19751 066.0176 001.8961 0013736 229.9162 130.0044 02.1315554611096,66.0176,0.0013736,2.13155546,1.8961,229.9162,130.0044
19751,COSMOS 1989 (ETALON 1),NSO,03103.58373002,1 19751U 89001C   03103.58373002 -.00000055 +00000-0 +00000-0 0 0921\,2 19751 066.0171 001.8492 0013734 229.9067 130.0167 02.1315557811099,66.0171,0.0013734,2.13155578,1.8492,229.9067,130.0167
19751,COSMOS 1989 (ETALON 1),NSO,03104.05287632,1 19751U 89001C   03104.05287632 -.00000054 +00000-0 +00000-0 0 0922\,2 19751 066.0181 001.8319 0013804 229.8003 130.1271 02.1315563511100,66.0181,0.0013804,2.13155635,1.8319,229.8003,130.1271
19751,COSMOS 1989 (ETALON 1),NSO,03104.99116524,1 19751U 89001C   03104.99116524 -.00000054 +00000-0 +00000-0 0 0920\,2 19751 066.0176 001.8013 0013733 229.7633 130.1605 02.1315559811102,66.0176,0.0013733,2.13155598,1.8013,229.7633,130.1605
19751,COSMOS 1989 (ETALON 1),NSO,03106.39861020,1 19751U 89001C   03106.39861020 -.00000055 +00000-0 +00000-0 0 0922\,2 19751 066.0175 001.7545 0013729 229.8005 130.1291 02.1315559011105,66.0175,0.0013729,2.1315559,1.7545,229.8005,130.1291
19751,COSMOS 1989 (ETALON 1),NSO,03107.33690237,1 19751U 89001C   03107.33690237 -.00000058 +00000-0 +00000-0 0 0921\,2 19751 066.0178 001.7231 0013740 229.8087 130.1220 02.1315559211107,66.0178,0.001374,2.13155592,1.7231,229.8087,130.122
19751,COSMOS 1989 (ETALON 1),NSO,03107.80604765,1 19751U 89001C   03107.80604765 -.00000061 +00000-0 +00000-0 0 0922\,2 19751 066.0176 001.7075 0013736 229.7986 130.1319 02.1315559311108,66.0176,0.0013736,2.13155593,1.7075,229.7986,130.1319
19751,COSMOS 1989 (ETALON 1),NSO,03109.21348321,1 19751U 89001C   03109.21348321 -.00000069 +00000-0 +00000-0 0 0924\,2 19751 066.0171 001.6610 0013739 229.7796 130.1492 02.1315558011111,66.0171,0.0013739,2.1315558,1.661,229.7796,130.1492
19751,COSMOS 1989 (ETALON 1),NSO,03110.15177268,1 19751U 89001C   03110.15177268 -.00000075 +00000-0 +00000-0 0 0922\,2 19751 066.0170 001.6300 0013724 229.8037 130.1230 02.1315556911113,66.017,0.0013724,2.13155569,1.63,229.8037,130.123
19751,COSMOS 1989 (ETALON 1),NSO,03110.62091823,1 19751U 89001C   03110.62091823 -.00000078 +00000-0 +00000-0 0 0923\,2 19751 066.0169 001.6143 0013723 229.7987 130.1275 02.1315556111114,66.0169,0.0013723,2.13155561,1.6143,229.7987,130.1275
19751,COSMOS 1989 (ETALON 1),NSO,03112.02835262,1 19751U 89001C   03112.02835262 -.00000086 +00000-0 +00000-0 0 0925\,2 19751 066.0170 001.5668 0013746 229.7924 130.1308 02.1315553411117,66.017,0.0013746,2.13155534,1.5668,229.7924,130.1308
19751,COSMOS 1989 (ETALON 1),NSO,03112.96664269,1 19751U 89001C   03112.96664269 -.00000088 +00000-0 +00000-0 0 0923\,2 19751 066.0170 001.5356 0013756 229.7849 130.1369 02.1315552211119,66.017,0.0013756,2.13155522,1.5356,229.7849,130.1369
19751,COSMOS 1989 (ETALON 1),NSO,03113.90493420,1 19751U 89001C   03113.90493420 -.00000089 +00000-0 +00000-0 0 0925\,2 19751 066.0169 001.5042 0013759 229.7878 130.1339 02.1315551511121,66.0169,0.0013759,2.13155515,1.5042,229.7878,130.1339
19751,COSMOS 1989 (ETALON 1),NSO,03115.31237311,1 19751U 89001C   03115.31237311 -.00000087 +00000-0 +00000-0 0 0924\,2 19751 066.0169 001.4573 0013762 229.7498 130.1732 02.1315550611124,66.0169,0.0013762,2.13155506,1.4573,229.7498,130.1732
19751,COSMOS 1989 (ETALON 1),NSO,03115.78152036,1 19751U 89001C   03115.78152036 -.00000086 +00000-0 +00000-0 0 0925\,2 19751 066.0171 001.4415 0013775 229.7293 130.1945 02.1315549111125,66.0171,0.0013775,2.13155491,1.4415,229.7293,130.1945
19751,COSMOS 1989 (ETALON 1),NSO,03117.18896230,1 19751U 89001C   03117.18896230 -.00000080 +00000-0 +00000-0 0 0927\,2 19751 066.0170 001.3947 0013786 229.6905 130.2374 02.1315549311128,66.017,0.0013786,2.13155493,1.3947,229.6905,130.2374
19751,COSMOS 1989 (ETALON 1),NSO,03118.12725714,1 19751U 89001C   03118.12725714 -.00000076 +00000-0 +00000-0 0 0925\,2 19751 066.0169 001.3632 0013778 229.6835 130.2468 02.1315548711130,66.0169,0.0013778,2.13155487,1.3632,229.6835,130.2468
19751,COSMOS 1989 (ETALON 1),NSO,03119.06555267,1 19751U 89001C   03119.06555267 -.00000072 +00000-0 +00000-0 0 0926\,2 19751 066.0168 001.3320 0013775 229.7050 130.2286 02.1315548811132,66.0168,0.0013775,2.13155488,1.332,229.705,130.2286
19751,COSMOS 1989 (ETALON 1),NSO,03120.00384703,1 19751U 89001C   03120.00384703 -.00000069 +00000-0 +00000-0 0 0927\,2 19751 066.0167 001.3008 0013785 229.7332 130.2030 02.1315549011134,66.0167,0.0013785,2.1315549,1.3008,229.7332,130.203
19751,COSMOS 1989 (ETALON 1),NSO,03120.94214038,1 19751U 89001C   03120.94214038 -.00000066  00000-0  00000+0 0  9260\,2 19751 066.0166 001.2696 0013777 229.7526 130.1848 02.13155482111360,66.0166,0.0013777,2.13155482,1.2696,229.7526,130.1848
19751,COSMOS 1989 (ETALON 1),NSO,03121.41128739,1 19751U 89001C   03121.41128739 -.00000065 +00000-0 +00000-0 0 0927\,2 19751 066.0166 001.2540 0013769 229.7648 130.1740 02.1315548911137,66.0166,0.0013769,2.13155489,1.254,229.7648,130.174
19751,COSMOS 1989 (ETALON 1),NSO,03122.34957946,1 19751U 89001C   03122.34957946 -.00000063 +00000-0 +00000-0 0 0928\,2 19751 066.0161 001.2230 0013757 229.7500 130.1892 02.1315548811139,66.0161,0.0013757,2.13155488,1.223,229.75,130.1892
19751,COSMOS 1989 (ETALON 1),NSO,03122.81872574,1 19751U 89001C   03122.81872574 -.00000062 +00000-0 +00000-0 0 0929\,2 19751 066.0161 001.2074 0013755 229.7784 130.1614 02.1315548911140,66.0161,0.0013755,2.13155489,1.2074,229.7784,130.1614
19751,COSMOS 1989 (ETALON 1),NSO,03123.28787117,1 19751U 89001C   03123.28787117 -.00000061  00000-0  00000+0 0  9279\,2 19751 066.0160 001.1918 0013756 229.7704 130.1689 02.13155484111416,66.016,0.0013756,2.13155484,1.1918,229.7704,130.1689
19751,COSMOS 1989 (ETALON 1),NSO,03124.69530747,1 19751U 89001C   03124.69530747 -.00000059 +00000-0 +00000-0 0 0928\,2 19751 066.0159 001.1450 0013747 229.7852 130.1537 02.1315548711144,66.0159,0.0013747,2.13155487,1.145,229.7852,130.1537
19751,COSMOS 1989 (ETALON 1),NSO,03125.16445215,1 19751U 89001C   03125.16445215 -.00000058 +00000-0 +00000-0 0 0929\,2 19751 066.0156 001.1297 0013729 229.7736 130.1650 02.1315549811145,66.0156,0.0013729,2.13155498,1.1297,229.7736,130.165
19751,COSMOS 1989 (ETALON 1),NSO,03125.63359666,1 19751U 89001C   03125.63359666 -.00000056 +00000-0 +00000-0 0 0928\,2 19751 066.0156 001.1140 0013726 229.7791 130.1589 02.1315550111146,66.0156,0.0013726,2.13155501,1.114,229.7791,130.1589
19751,COSMOS 1989 (ETALON 1),NSO,03127.51017335,1 19751U 89001C   03127.51017335 -.00000052 +00000-0 +00000-0 0 0930\,2 19751 066.0155 001.0515 0013743 229.7256 130.2102 02.1315553411150,66.0155,0.0013743,2.13155534,1.0515,229.7256,130.2102
